[{"OBJECT_NAME":"ONEWEB-0141","OBJECT_ID":"2020-100AF","EPOCH":"2025-09-02T21:43:50.695968","MEAN_MOTION":13.12442619,"ECCENTRICITY":0.00019203,"INCLINATION":87.8871,"RA_OF_ASC_NODE":47.7348,"ARG_OF_PERICENTER":100.3787,"MEAN_ANOMALY":259.7558,"EPHEMERIS_TYPE":0,"CLASSIFICATION_TYPE":"U","NORAD_CAT_ID":47287,"ELEMENT_SET_NO":999,"REV_AT_EPOCH":22699,"BSTAR":0.0012787547,"MEAN_MOTION_DOT":4.73e-6,"MEAN_MOTION_DDOT":0},{"OBJECT_NAME":"ONEWEB-0142","OBJECT_ID":"2020-100AG","EPOCH":"2025-09-02T21:27:52.773984","MEAN_MOTION":13.12442378,"ECCENTRICITY":0.00017909,"INCLINATION":87.8887,"RA_OF_ASC_NODE":47.7519,"ARG_OF_PERICENTER":105.741,"MEAN_ANOMALY":254.3916,"EPHEMERIS_TYPE":0,"CLASSIFICATION_TYPE":"U","NORAD_CAT_ID":47288,"ELEMENT_SET_NO":999,"REV_AT_EPOCH":22698,"BSTAR":0.001129542,"MEAN_MOTION_DOT":4.19e-6,"MEAN_MOTION_DDOT":0},{"OBJECT_NAME":"ONEWEB-0143","OBJECT_ID":"2020-100AH","EPOCH":"2025-09-02T21:41:42.748800","MEAN_MOTION":13.12442005,"ECCENTRICITY":0.00016946,"INCLINATION":87.8883,"RA_OF_ASC_NODE":47.7469,"ARG_OF_PERICENTER":92.2293,"MEAN_ANOMALY":267.903,"EPHEMERIS_TYPE":0,"CLASSIFICATION_TYPE":"U","NORAD_CAT_ID":47289,"ELEMENT_SET_NO":999,"REV_AT_EPOCH":22696,"BSTAR":0.0012508784,"MEAN_MOTION_DOT":4.63e-6,"MEAN_MOTION_DDOT":0},{"OBJECT_NAME":"ONEWEB-0144","OBJECT_ID":"2020-100AJ","EPOCH":"2025-09-02T21:02:00.017376","MEAN_MOTION":13.1244413,"ECCENTRICITY":0.00015723,"INCLINATION":87.8874,"RA_OF_ASC_NODE":47.7287,"ARG_OF_PERICENTER":102.2406,"MEAN_ANOMALY":257.8899,"EPHEMERIS_TYPE":0,"CLASSIFICATION_TYPE":"U","NORAD_CAT_ID":47290,"ELEMENT_SET_NO":999,"REV_AT_EPOCH":22688,"BSTAR":-0.00041030357,"MEAN_MOTION_DOT":-1.35e-6,"MEAN_MOTION_DDOT":0},{"OBJECT_NAME":"ONEWEB-0145","OBJECT_ID":"2020-100AK","EPOCH":"2025-09-02T22:09:44.430624","MEAN_MOTION":13.12441264,"ECCENTRICITY":0.00016167,"INCLINATION":87.8881,"RA_OF_ASC_NODE":47.7496,"ARG_OF_PERICENTER":95.3365,"MEAN_ANOMALY":264.7948,"EPHEMERIS_TYPE":0,"CLASSIFICATION_TYPE":"U","NORAD_CAT_ID":47291,"ELEMENT_SET_NO":999,"REV_AT_EPOCH":22708,"BSTAR":4.9521485e-5,"MEAN_MOTION_DOT":3.1e-7,"MEAN_MOTION_DDOT":0},{"OBJECT_NAME":"ONEWEB-0146","OBJECT_ID":"2020-100AL","EPOCH":"2025-09-02T22:05:04.124832","MEAN_MOTION":13.1244176,"ECCENTRICITY":0.00018346,"INCLINATION":87.8881,"RA_OF_ASC_NODE":47.7368,"ARG_OF_PERICENTER":82.7288,"MEAN_ANOMALY":277.4049,"EPHEMERIS_TYPE":0,"CLASSIFICATION_TYPE":"U","NORAD_CAT_ID":47292,"ELEMENT_SET_NO":999,"REV_AT_EPOCH":22699,"BSTAR":0.00028083399,"MEAN_MOTION_DOT":1.14e-6,"MEAN_MOTION_DDOT":0},{"OBJECT_NAME":"ONEWEB-0147","OBJECT_ID":"2020-100AM","EPOCH":"2025-09-02T21:16:01.261344","MEAN_MOTION":13.12445804,"ECCENTRICITY":0.00014069,"INCLINATION":87.8882,"RA_OF_ASC_NODE":47.7221,"ARG_OF_PERICENTER":90.7021,"MEAN_ANOMALY":269.4269,"EPHEMERIS_TYPE":0,"CLASSIFICATION_TYPE":"U","NORAD_CAT_ID":47293,"ELEMENT_SET_NO":999,"REV_AT_EPOCH":22688,"BSTAR":0.00048203992,"MEAN_MOTION_DOT":1.86e-6,"MEAN_MOTION_DDOT":0},{"OBJECT_NAME":"ONEWEB-0115","OBJECT_ID":"2021-025A","EPOCH":"2025-09-02T21:50:24.991872","MEAN_MOTION":13.13470358,"ECCENTRICITY":0.00017451,"INCLINATION":87.9021,"RA_OF_ASC_NODE":17.2792,"ARG_OF_PERICENTER":95.8025,"MEAN_ANOMALY":264.3303,"EPHEMERIS_TYPE":0,"CLASSIFICATION_TYPE":"U","NORAD_CAT_ID":48042,"ELEMENT_SET_NO":999,"REV_AT_EPOCH":21588,"BSTAR":0.00047590044,"MEAN_MOTION_DOT":1.87e-6,"MEAN_MOTION_DDOT":0},{"OBJECT_NAME":"ONEWEB-0152","OBJECT_ID":"2021-025B","EPOCH":"2025-09-02T22:09:54.609408","MEAN_MOTION":13.13469625,"ECCENTRICITY":0.00017068,"INCLINATION":87.9019,"RA_OF_ASC_NODE":17.2905,"ARG_OF_PERICENTER":93.8879,"MEAN_ANOMALY":266.2445,"EPHEMERIS_TYPE":0,"CLASSIFICATION_TYPE":"U","NORAD_CAT_ID":48043,"ELEMENT_SET_NO":999,"REV_AT_EPOCH":21584,"BSTAR":-0.00059574937,"MEAN_MOTION_DOT":-2.05e-6,"MEAN_MOTION_DDOT":0},{"OBJECT_NAME":"ONEWEB-0153","OBJECT_ID":"2021-025C","EPOCH":"2025-09-02T21:38:13.852608","MEAN_MOTION":13.13469513,"ECCENTRICITY":0.00017434,"INCLINATION":87.9022,"RA_OF_ASC_NODE":17.2941,"ARG_OF_PERICENTER":99.2805,"MEAN_ANOMALY":260.8521,"EPHEMERIS_TYPE":0,"CLASSIFICATION_TYPE":"U","NORAD_CAT_ID":48044,"ELEMENT_SET_NO":999,"REV_AT_EPOCH":21583,"BSTAR":0.000797589,"MEAN_MOTION_DOT":3.04e-6,"MEAN_MOTION_DDOT":0},{"OBJECT_NAME":"ONEWEB-0154","OBJECT_ID":"2021-025D","EPOCH":"2025-09-02T19:43:38.764416","MEAN_MOTION":13.13472825,"ECCENTRICITY":0.00016759,"INCLINATION":87.9018,"RA_OF_ASC_NODE":17.3075,"ARG_OF_PERICENTER":96.3914,"MEAN_ANOMALY":263.7406,"EPHEMERIS_TYPE":0,"CLASSIFICATION_TYPE":"U","NORAD_CAT_ID":48045,"ELEMENT_SET_NO":999,"REV_AT_EPOCH":21578,"BSTAR":0.00077556433,"MEAN_MOTION_DOT":2.96e-6,"MEAN_MOTION_DDOT":0},{"OBJECT_NAME":"ONEWEB-0116","OBJECT_ID":"2021-025E","EPOCH":"2025-09-02T20:39:43.242624","MEAN_MOTION":13.13470832,"ECCENTRICITY":0.00017699,"INCLINATION":87.9021,"RA_OF_ASC_NODE":17.2817,"ARG_OF_PERICENTER":93.1098,"MEAN_ANOMALY":267.0234,"EPHEMERIS_TYPE":0,"CLASSIFICATION_TYPE":"U","NORAD_CAT_ID":48046,"ELEMENT_SET_NO":999,"REV_AT_EPOCH":21593,"BSTAR":-0.00064946171,"MEAN_MOTION_DOT":-2.24e-6,"MEAN_MOTION_DDOT":0},{"OBJECT_NAME":"ONEWEB-0150","OBJECT_ID":"2021-025F","EPOCH":"2025-09-02T21:55:16.875264","MEAN_MOTION":13.13469486,"ECCENTRICITY":0.00019133,"INCLINATION":87.9023,"RA_OF_ASC_NODE":17.2663,"ARG_OF_PERICENTER":100.5584,"MEAN_ANOMALY":259.576,"EPHEMERIS_TYPE":0,"CLASSIFICATION_TYPE":"U","NORAD_CAT_ID":48047,"ELEMENT_SET_NO":999,"REV_AT_EPOCH":21583,"BSTAR":0.00023098455,"MEAN_MOTION_DOT":9.7e-7,"MEAN_MOTION_DDOT":0},{"OBJECT_NAME":"ONEWEB-0107","OBJECT_ID":"2021-025G","EPOCH":"2025-09-02T20:08:01.409280","MEAN_MOTION":13.13469459,"ECCENTRICITY":0.00016397,"INCLINATION":87.9019,"RA_OF_ASC_NODE":17.2791,"ARG_OF_PERICENTER":107.9639,"MEAN_ANOMALY":252.1669,"EPHEMERIS_TYPE":0,"CLASSIFICATION_TYPE":"U","NORAD_CAT_ID":48048,"ELEMENT_SET_NO":999,"REV_AT_EPOCH":21580,"BSTAR":3.0540335e-5,"MEAN_MOTION_DOT":2.4e-7,"MEAN_MOTION_DDOT":0},{"OBJECT_NAME":"ONEWEB-0101","OBJECT_ID":"2021-025H","EPOCH":"2025-09-02T19:14:24.029664","MEAN_MOTION":13.13471424,"ECCENTRICITY":0.00015597,"INCLINATION":87.9019,"RA_OF_ASC_NODE":17.3258,"ARG_OF_PERICENTER":100.0225,"MEAN_ANOMALY":260.108,"EPHEMERIS_TYPE":0,"CLASSIFICATION_TYPE":"U","NORAD_CAT_ID":48049,"ELEMENT_SET_NO":999,"REV_AT_EPOCH":21577,"BSTAR":8.4664291e-5,"MEAN_MOTION_DOT":4.4e-7,"MEAN_MOTION_DDOT":0},{"OBJECT_NAME":"ONEWEB-0113","OBJECT_ID":"2021-025J","EPOCH":"2025-09-02T22:23:59.268768","MEAN_MOTION":13.13977324,"ECCENTRICITY":0.00018409,"INCLINATION":87.9017,"RA_OF_ASC_NODE":17.242,"ARG_OF_PERICENTER":92.5167,"MEAN_ANOMALY":267.6174,"EPHEMERIS_TYPE":0,"CLASSIFICATION_TYPE":"U","NORAD_CAT_ID":48050,"ELEMENT_SET_NO":999,"REV_AT_EPOCH":21588,"BSTAR":-0.00051538377,"MEAN_MOTION_DOT":-1.77e-6,"MEAN_MOTION_DDOT":0}]
