ONEWEB-0141             
1 47287U 20100AF  25245.90544787  .00000473  00000+0  12788-2 0  9994
2 47287  87.8871  47.7348 0001920 100.3787 259.7558 13.12442619226992
ONEWEB-0142             
1 47288U 20100AG  25245.89436081  .00000419  00000+0  11295-2 0  9992
2 47288  87.8887  47.7519 0001790 105.7410 254.3916 13.12442378226987
ONEWEB-0143             
1 47289U 20100AH  25245.90396700  .00000463  00000+0  12509-2 0  9996
2 47289  87.8883  47.7469 0001694  92.2293 267.9030 13.12442005226962
ONEWEB-0144             
1 47290U 20100AJ  25245.87638909 -.00000135  00000+0 -41030-3 0  9994
2 47290  87.8874  47.7287 0001572 102.2406 257.8899 13.12444130226888
ONEWEB-0145             
1 47291U 20100AK  25245.92343091  .00000031  00000+0  49521-4 0  9993
2 47291  87.8881  47.7496 0001616  95.3365 264.7948 13.12441264227084
ONEWEB-0146             
1 47292U 20100AL  25245.92018663  .00000114  00000+0  28083-3 0  9999
2 47292  87.8881  47.7368 0001834  82.7288 277.4049 13.12441760226992
ONEWEB-0147             
1 47293U 20100AM  25245.88612571  .00000186  00000+0  48204-3 0  9999
2 47293  87.8882  47.7221 0001406  90.7021 269.4269 13.12445804226887
ONEWEB-0115             
1 48042U 21025A   25245.91001148  .00000187  00000+0  47590-3 0  9993
2 48042  87.9021  17.2792 0001745  95.8025 264.3303 13.13470358215881
ONEWEB-0152             
1 48043U 21025B   25245.92354872 -.00000205  00000+0 -59575-3 0  9999
2 48043  87.9019  17.2905 0001706  93.8879 266.2445 13.13469625215846
ONEWEB-0153             
1 48044U 21025C   25245.90154922  .00000304  00000+0  79759-3 0  9996
2 48044  87.9022  17.2941 0001743  99.2805 260.8521 13.13469513215831
ONEWEB-0154             
1 48045U 21025D   25245.82197644  .00000296  00000+0  77556-3 0  9999
2 48045  87.9018  17.3075 0001675  96.3914 263.7406 13.13472825215787
ONEWEB-0116             
1 48046U 21025E   25245.86091716 -.00000224  00000+0 -64946-3 0  9999
2 48046  87.9021  17.2817 0001769  93.1098 267.0234 13.13470832215936
ONEWEB-0150             
1 48047U 21025F   25245.91338976  .00000097  00000+0  23098-3 0  9997
2 48047  87.9023  17.2663 0001913 100.5584 259.5760 13.13469486215834
ONEWEB-0107             
1 48048U 21025G   25245.83890520  .00000024  00000+0  30540-4 0  9998
2 48048  87.9019  17.2791 0001639 107.9639 252.1669 13.13469459215803
ONEWEB-0101             
1 48049U 21025H   25245.80166701  .00000044  00000+0  84664-4 0  9991
2 48049  87.9019  17.3258 0001559 100.0225 260.1080 13.13471424215776
ONEWEB-0113             
1 48050U 21025J   25245.93332487 -.00000177  00000+0 -51538-3 0  9995
2 48050  87.9017  17.2420 0001840  92.5167 267.6174 13.13977324215887
